[
  {
    "OBJECT_NAME": "STARLINK-2323",
    "OBJECT_ID": "2021-021J",
    "EPOCH": "2024-05-20T19:24:19.764576",
    "MEAN_MOTION": 15.06390392,
    "ECCENTRICITY": 0.0001328,
    "INCLINATION": 53.0541,
    "RA_OF_ASC_NODE": 284.9608,
    "ARG_OF_PERICENTER": 75.4143,
    "MEAN_ANOMALY": 284.6993,
    "EPHEMERIS_TYPE": 0,
    "CLASSIFICATION_TYPE": "U",
    "NORAD_CAT_ID": 47868,
    "ELEMENT_SET_NO": 999,
    "REV_AT_EPOCH": 17740,
    "BSTAR": 0.0013156,
    "MEAN_MOTION_DOT": 0.00019363,
    "MEAN_MOTION_DDOT": 0
  },
  {
    "OBJECT_NAME": "STARLINK-2324",
    "OBJECT_ID": "2021-021K",
    "EPOCH": "2024-05-20T13:06:09.885600",
    "MEAN_MOTION": 15.06386907,
    "ECCENTRICITY": 0.0001386,
    "INCLINATION": 53.0547,
    "RA_OF_ASC_NODE": 336.1363,
    "ARG_OF_PERICENTER": 86.78,
    "MEAN_ANOMALY": 273.3348,
    "EPHEMERIS_TYPE": 0,
    "CLASSIFICATION_TYPE": "U",
    "NORAD_CAT_ID": 47869,
    "ELEMENT_SET_NO": 999,
    "REV_AT_EPOCH": 17724,
    "BSTAR": 0.00055341,
    "MEAN_MOTION_DOT": 7.968e-5,
    "MEAN_MOTION_DDOT": 0
  },
  {
    "OBJECT_NAME": "STARLINK-2326",
    "OBJECT_ID": "2021-021L",
    "EPOCH": "2024-05-20T19:54:11.854368",
    "MEAN_MOTION": 15.06381368,
    "ECCENTRICITY": 0.0001354,
    "INCLINATION": 53.0544,
    "RA_OF_ASC_NODE": 359.8653,
    "ARG_OF_PERICENTER": 67.3738,
    "MEAN_ANOMALY": 292.7394,
    "EPHEMERIS_TYPE": 0,
    "CLASSIFICATION_TYPE": "U",
    "NORAD_CAT_ID": 47870,
    "ELEMENT_SET_NO": 999,
    "REV_AT_EPOCH": 17634,
    "BSTAR": 0.00027754,
    "MEAN_MOTION_DOT": 3.853e-5,
    "MEAN_MOTION_DDOT": 0
  },
  {
    "OBJECT_NAME": "STARLINK-2327",
    "OBJECT_ID": "2021-021M",
    "EPOCH": "2024-05-20T19:23:00.951360",
    "MEAN_MOTION": 15.06385688,
    "ECCENTRICITY": 0.0001536,
    "INCLINATION": 53.055,
    "RA_OF_ASC_NODE": 334.9652,
    "ARG_OF_PERICENTER": 76.2164,
    "MEAN_ANOMALY": 283.8996,
    "EPHEMERIS_TYPE": 0,
    "CLASSIFICATION_TYPE": "U",
    "NORAD_CAT_ID": 47871,
    "ELEMENT_SET_NO": 999,
    "REV_AT_EPOCH": 17670,
    "BSTAR": 0.00024296,
    "MEAN_MOTION_DOT": 3.338e-5,
    "MEAN_MOTION_DDOT": 0
  },
  {
    "OBJECT_NAME": "STARLINK-2329",
    "OBJECT_ID": "2021-021P",
    "EPOCH": "2024-05-20T22:07:33.846528",
    "MEAN_MOTION": 15.06384906,
    "ECCENTRICITY": 0.0001514,
    "INCLINATION": 53.0548,
    "RA_OF_ASC_NODE": 334.4483,
    "ARG_OF_PERICENTER": 85.6342,
    "MEAN_ANOMALY": 274.482,
    "EPHEMERIS_TYPE": 0,
    "CLASSIFICATION_TYPE": "U",
    "NORAD_CAT_ID": 47873,
    "ELEMENT_SET_NO": 999,
    "REV_AT_EPOCH": 17671,
    "BSTAR": 0.00026257,
    "MEAN_MOTION_DOT": 3.63e-5,
    "MEAN_MOTION_DDOT": 0
  },
  {
    "OBJECT_NAME": "STARLINK-2330",
    "OBJECT_ID": "2021-021Q",
    "EPOCH": "2024-05-21T01:32:34.478016",
    "MEAN_MOTION": 15.06398327,
    "ECCENTRICITY": 0.0001547,
    "INCLINATION": 53.0544,
    "RA_OF_ASC_NODE": 288.8188,
    "ARG_OF_PERICENTER": 87.2875,
    "MEAN_ANOMALY": 272.8291,
    "EPHEMERIS_TYPE": 0,
    "CLASSIFICATION_TYPE": "U",
    "NORAD_CAT_ID": 47874,
    "ELEMENT_SET_NO": 999,
    "REV_AT_EPOCH": 17736,
    "BSTAR": 0.00063605,
    "MEAN_MOTION_DOT": 9.205e-5,
    "MEAN_MOTION_DDOT": 0
  },
  {
    "OBJECT_NAME": "STARLINK-2331",
    "OBJECT_ID": "2021-021R",
    "EPOCH": "2024-05-20T23:31:09.147072",
    "MEAN_MOTION": 15.06395493,
    "ECCENTRICITY": 0.0001335,
    "INCLINATION": 53.0558,
    "RA_OF_ASC_NODE": 344.1914,
    "ARG_OF_PERICENTER": 76.5742,
    "MEAN_ANOMALY": 283.5395,
    "EPHEMERIS_TYPE": 0,
    "CLASSIFICATION_TYPE": "U",
    "NORAD_CAT_ID": 47875,
    "ELEMENT_SET_NO": 999,
    "REV_AT_EPOCH": 17658,
    "BSTAR": 0.00094149,
    "MEAN_MOTION_DOT": 0.00013768,
    "MEAN_MOTION_DDOT": 0
  },
  {
    "OBJECT_NAME": "STARLINK-2332",
    "OBJECT_ID": "2021-021S",
    "EPOCH": "2024-05-20T20:04:09.384672",
    "MEAN_MOTION": 15.0638875,
    "ECCENTRICITY": 0.000148,
    "INCLINATION": 53.0543,
    "RA_OF_ASC_NODE": 344.8376,
    "ARG_OF_PERICENTER": 93.1936,
    "MEAN_ANOMALY": 266.9223,
    "EPHEMERIS_TYPE": 0,
    "CLASSIFICATION_TYPE": "U",
    "NORAD_CAT_ID": 47876,
    "ELEMENT_SET_NO": 999,
    "REV_AT_EPOCH": 17656,
    "BSTAR": 0.00028035,
    "MEAN_MOTION_DOT": 3.895e-5,
    "MEAN_MOTION_DDOT": 0
  },
  {
    "OBJECT_NAME": "STARLINK-2333",
    "OBJECT_ID": "2021-021T",
    "EPOCH": "2024-05-20T18:49:50.812896",
    "MEAN_MOTION": 15.06394668,
    "ECCENTRICITY": 0.0001579,
    "INCLINATION": 53.0555,
    "RA_OF_ASC_NODE": 345.0652,
    "ARG_OF_PERICENTER": 98.2098,
    "MEAN_ANOMALY": 261.907,
    "EPHEMERIS_TYPE": 0,
    "CLASSIFICATION_TYPE": "U",
    "NORAD_CAT_ID": 47877,
    "ELEMENT_SET_NO": 999,
    "REV_AT_EPOCH": 17655,
    "BSTAR": 6.2295e-5,
    "MEAN_MOTION_DOT": 6.46e-6,
    "MEAN_MOTION_DDOT": 0
  },
  {
    "OBJECT_NAME": "STARLINK-2335",
    "OBJECT_ID": "2021-021U",
    "EPOCH": "2024-05-20T23:52:23.461536",
    "MEAN_MOTION": 15.06385141,
    "ECCENTRICITY": 0.0001504,
    "INCLINATION": 53.055,
    "RA_OF_ASC_NODE": 344.1223,
    "ARG_OF_PERICENTER": 77.9524,
    "MEAN_ANOMALY": 282.1633,
    "EPHEMERIS_TYPE": 0,
    "CLASSIFICATION_TYPE": "U",
    "NORAD_CAT_ID": 47878,
    "ELEMENT_SET_NO": 999,
    "REV_AT_EPOCH": 17659,
    "BSTAR": 0.00023246,
    "MEAN_MOTION_DOT": 3.181e-5,
    "MEAN_MOTION_DDOT": 0
  },
  {
    "OBJECT_NAME": "STARLINK-2336",
    "OBJECT_ID": "2021-021V",
    "EPOCH": "2024-05-19T23:54:37.384992",
    "MEAN_MOTION": 15.06380265,
    "ECCENTRICITY": 8.46e-5,
    "INCLINATION": 53.0546,
    "RA_OF_ASC_NODE": 3.603,
    "ARG_OF_PERICENTER": 72.1424,
    "MEAN_ANOMALY": 287.9658,
    "EPHEMERIS_TYPE": 0,
    "CLASSIFICATION_TYPE": "U",
    "NORAD_CAT_ID": 47879,
    "ELEMENT_SET_NO": 999,
    "REV_AT_EPOCH": 17687,
    "BSTAR": -0.00018109,
    "MEAN_MOTION_DOT": -2.976e-5,
    "MEAN_MOTION_DDOT": 0
  },
  {
    "OBJECT_NAME": "STARLINK-2337",
    "OBJECT_ID": "2021-021W",
    "EPOCH": "2024-05-20T19:57:31.320000",
    "MEAN_MOTION": 15.06388659,
    "ECCENTRICITY": 0.0001502,
    "INCLINATION": 53.0553,
    "RA_OF_ASC_NODE": 354.8555,
    "ARG_OF_PERICENTER": 101.8312,
    "MEAN_ANOMALY": 258.2846,
    "EPHEMERIS_TYPE": 0,
    "CLASSIFICATION_TYPE": "U",
    "NORAD_CAT_ID": 47880,
    "ELEMENT_SET_NO": 999,
    "REV_AT_EPOCH": 17642,
    "BSTAR": -4.2685e-5,
    "MEAN_MOTION_DOT": -9.17e-6,
    "MEAN_MOTION_DDOT": 0
  },
  {
    "OBJECT_NAME": "STARLINK-2339",
    "OBJECT_ID": "2021-021X",
    "EPOCH": "2024-05-20T20:34:40.865952",
    "MEAN_MOTION": 15.0638841,
    "ECCENTRICITY": 0.0001527,
    "INCLINATION": 53.055,
    "RA_OF_ASC_NODE": 354.7398,
    "ARG_OF_PERICENTER": 98.0154,
    "MEAN_ANOMALY": 262.1008,
    "EPHEMERIS_TYPE": 0,
    "CLASSIFICATION_TYPE": "U",
    "NORAD_CAT_ID": 47881,
    "ELEMENT_SET_NO": 999,
    "REV_AT_EPOCH": 17643,
    "BSTAR": 3.3579e-5,
    "MEAN_MOTION_DOT": 2.19e-6,
    "MEAN_MOTION_DDOT": 0
  },
  {
    "OBJECT_NAME": "STARLINK-2340",
    "OBJECT_ID": "2021-021Y",
    "EPOCH": "2024-05-20T13:36:41.238144",
    "MEAN_MOTION": 15.06389382,
    "ECCENTRICITY": 9.3e-5,
    "INCLINATION": 53.0553,
    "RA_OF_ASC_NODE": 346.0414,
    "ARG_OF_PERICENTER": 91.8252,
    "MEAN_ANOMALY": 268.2844,
    "EPHEMERIS_TYPE": 0,
    "CLASSIFICATION_TYPE": "U",
    "NORAD_CAT_ID": 47882,
    "ELEMENT_SET_NO": 999,
    "REV_AT_EPOCH": 17652,
    "BSTAR": 0.00021755,
    "MEAN_MOTION_DOT": 2.96e-5,
    "MEAN_MOTION_DDOT": 0
  }
]