STARLINK-2323           
1 47868U 21021J   24141.80856209  .00019363  00000+0  13156-2 0  9998
2 47868  53.0541 284.9608 0001328  75.4143 284.6993 15.06390392177406
STARLINK-2324           
1 47869U 21021K   24141.54594775  .00007968  00000+0  55341-3 0  9998
2 47869  53.0547 336.1363 0001386  86.7800 273.3348 15.06386907177248
STARLINK-2326           
1 47870U 21021L   24141.82930387  .00003853  00000+0  27754-3 0  9990
2 47870  53.0544 359.8653 0001354  67.3738 292.7394 15.06381368176343
STARLINK-2327           
1 47871U 21021M   24141.80764990  .00003338  00000+0  24296-3 0  9990
2 47871  53.0550 334.9652 0001536  76.2164 283.8996 15.06385688176706
STARLINK-2329           
1 47873U 21021P   24141.92191952  .00003630  00000+0  26257-3 0  9991
2 47873  53.0548 334.4483 0001514  85.6342 274.4820 15.06384906176715
STARLINK-2330           
1 47874U 21021Q   24142.06428794  .00009205  00000+0  63605-3 0  9997
2 47874  53.0544 288.8188 0001547  87.2875 272.8291 15.06398327177369
STARLINK-2331           
1 47875U 21021R   24141.97996698  .00013768  00000+0  94149-3 0  9996
2 47875  53.0558 344.1914 0001335  76.5742 283.5395 15.06395493176585
STARLINK-2332           
1 47876U 21021S   24141.83621973  .00003895  00000+0  28035-3 0  9994
2 47876  53.0543 344.8376 0001480  93.1936 266.9223 15.06388750176561
STARLINK-2333           
1 47877U 21021T   24141.78461589  .00000646  00000+0  62295-4 0  9992
2 47877  53.0555 345.0652 0001579  98.2098 261.9070 15.06394668176558
STARLINK-2335           
1 47878U 21021U   24141.99471599  .00003181  00000+0  23246-3 0  9997
2 47878  53.0550 344.1223 0001504  77.9524 282.1633 15.06385141176594
STARLINK-2336           
1 47879U 21021V   24140.99626603 -.00002976  00000+0 -18109-3 0  9990
2 47879  53.0546   3.6030 0000846  72.1424 287.9658 15.06380265176870
STARLINK-2337           
1 47880U 21021W   24141.83161250 -.00000917  00000+0 -42685-4 0  9998
2 47880  53.0553 354.8555 0001502 101.8312 258.2846 15.06388659176425
STARLINK-2339           
1 47881U 21021X   24141.85741743  .00000219  00000+0  33579-4 0  9997
2 47881  53.0550 354.7398 0001527  98.0154 262.1008 15.06388410176435
STARLINK-2340           
1 47882U 21021Y   24141.56714396  .00002960  00000+0  21755-3 0  9997
2 47882  53.0553 346.0414 0000930  91.8252 268.2844 15.06389382176523
